HELIOS 2A               
1 28492U 04049A   22256.10629447  .00001429  00000+0  14219-3 0  9997
2 28492  98.2391 203.2513 0014768 148.7334 211.4753 14.93316498948205
CFESAT                  
1 30777U 07006F   22255.88599093  .00129363  00000+0  11030-2 0  9994
2 30777  35.4165  77.1464 0002026  25.1571 334.9263 15.68156046862851
SPIRALE A               
1 33751U 09008C   22255.77408103  .00000161  00000+0  72690-3 0  9996
2 33751   1.9749 172.8324 5443506  50.1943 346.3273  4.58863252198826
SPIRALE B               
1 33752U 09008D   22255.58922295  .00004183  00000+0  97728-3 0  9996
2 33752   2.1902  66.7975 6857438 246.8503  30.9912  2.82933834127540
SAPPHIRE                
1 39088U 13009C   22255.82582430  .00000082  00000+0  44496-4 0  9999
2 39088  98.4249  89.3920 0011844  22.6774 337.4932 14.34321060499640
